CUTE-1 (CO-55)          
1 27844U 03031E   26199.29733931  .00000128  00000+0  74435-4 0  9993
2 27844  98.6744 207.4657 0010867  94.6885 265.5536 14.24352673196104
CUBESAT XI-IV (CO-57)   
1 27848U 03031J   26198.95002441  .00000107  00000+0  66203-4 0  9995
2 27848  98.6776 206.8106 0010632 112.1739 248.0569 14.23635431195756
CUBESAT XI-V            
1 28895U 05043F   26197.95849456  .00000631  00000+0  10709-3 0  9998
2 28895  98.3017 354.2118 0015312 110.0551 250.2305 14.72704810106133
CUTE-1.7+APD II (CO-65) 
1 32785U 08021C   26199.20357444  .00002036  00000+0  13048-3 0  9991
2 32785  97.8299 181.2770 0006839 287.0657  72.9822 15.09715838989876
CANX-2                  
1 32790U 08021H   26199.18958524  .00001316  00000+0  95241-4 0  9996
2 32790  97.8659 179.5777 0008646 306.0320  54.0104 15.05814552989475
SEEDS II (CO-66)        
1 32791U 08021J   26199.26543741  .00009917  00000+0  30654-3 0  9998
2 32791  97.7531 198.6727 0003420 150.0473 210.0965 15.33729458992050
SWISSCUBE               
1 35932U 09051B   26198.68225148  .00000433  00000+0  95101-4 0  9998
2 35932  98.4004 107.0987 0007946 112.4041 247.8002 14.62533257893618
BEESAT-1                
1 35933U 09051C   26198.70764305  .00000353  00000+0  80631-4 0  9998
2 35933  98.3931 106.6958 0006240 123.4432 236.7366 14.61763986893648
ITUPSAT1                
1 35935U 09051E   26199.20487644  .00000331  00000+0  78213-4 0  9993
2 35935  98.4013 106.3592 0008268 134.7266 225.4608 14.60481150893266
TISAT 1                 
1 36799U 10035E   26198.80977816  .00011191  00000+0  35592-3 0  9994
2 36799  98.0716 148.1049 0004659 115.0155 245.1569 15.32792576872394
STRAND-1                
1 39090U 13009E   26199.24638356  .00000108  00000+0  50761-4 0  9999
2 39090  98.3937  18.7186 0009554 132.8363 227.3628 14.37179871701525
BRITE-AUSTRIA           
1 39091U 13009F   26198.78518510  .00000059  00000+0  34436-4 0  9993
2 39091  98.4011  17.4659 0010906 143.4124 216.7810 14.36553072701441
NEE-01 PEGASO           
1 39151U 13018B   26198.87882650  .00001460  00000+0  14326-3 0  9991
2 39151  98.1261 344.0523 0013625  66.4608 293.8041 14.93796575715282
POPACS 2                
1 39269U 13055E   26199.16865769  .00014551 -92547-6  23705-3 0  9998
2 39269  80.9914 108.7152 0414657  94.3421 270.5279 14.92100608667839
POPACS 3                
1 39270U 13055F   26199.30837120  .00007544  00000+0  17940-3 0  9999
2 39270  81.0005 195.4250 0548375 335.1698  22.3977 14.56710923643089
ZACUBE-1 (TSHEPISOSAT)  
1 39417U 13066B   26198.86726362  .00001255  00000+0  10038-3 0  9993
2 39417  97.8005 161.3542 0044051 146.6146 213.7870 15.01335799685335
WNISAT-1                
1 39423U 13066H   26199.16099051  .00000550  00000+0  10787-3 0  9990
2 39423  97.7240 346.1247 0164037 134.0280 227.4571 14.58123643671243
TRITON-1                
1 39427U 13066M   26199.22408733  .00000587  00000+0  75890-4 0  9999
2 39427  97.8223 108.3220 0090800 132.3489 228.5460 14.81800137678686
GOMX-1                  
1 39430U 13066Q   26199.23521131  .00000555  00000+0  90350-4 0  9995
2 39430  97.6462  37.7382 0127971 338.4264  21.1578 14.69546250674476
CUBEBUG-2 (LO-74)       
1 39440U 13066AA  26199.27612170  .00001982  00000+0  18626-3 0  9994
2 39440  97.8920 148.3935 0055588 284.9361  74.5708 14.93979591681636
NEE-02 KRYSAOR          
1 39441U 13066AB  26199.30383179  .00001039  00000+0  11889-3 0  9990
2 39441  97.8897 138.3004 0065149 329.0008  30.7369 14.86746311680820
FUNCUBE-1 (AO-73)       
1 39444U 13066AE  26198.87735123  .00004433  00000+0  27372-3 0  9999
2 39444  97.8295 170.9747 0037943  98.9940 261.5586 15.09839207684292
UWE-3                   
1 39446U 13066AG  26198.82646848  .00002032  00000+0  17707-3 0  9995
2 39446  97.8719 155.1139 0047603 215.4548 144.3506 14.97209607682164
BRITE-CA1 (TORONTO)     
1 40020U 14033L   26199.29193805  .00000509  00000+0  83984-4 0  9990
2 40020  97.9775 327.6531 0078700 176.3507 183.8291 14.72726048646795
DUCHIFAT-1              
1 40021U 14033M   26199.16331792  .00093801  00000+0  72542-3 0  9990
2 40021  98.0423 262.8485 0003259 233.3410 126.7552 15.71597676660605
NANOSATC-BR1            
1 40024U 14033Q   26199.03540875  .00009821  00000+0  31675-3 0  9994
2 40024  98.0705 234.1779 0005196  89.7852 270.3983 15.32384103658702
QB50P1                  
1 40025U 14033R   26199.31896595  .00004488  00000+0  21986-3 0  9997
2 40025  98.0968 212.6585 0010487 115.5699 244.6619 15.18693321657759
QB50P2                  
1 40032U 14033Y   26198.93725984  .00004058  00000+0  21790-3 0  9991
2 40032  98.0766 197.7424 0009243  76.1701 284.0558 15.15528215657321
PERSEUS-M2              
1 40037U 14033AD  26199.30824453  .00000129  00000+0  17097-4 0  9990
2 40037  97.9988 150.4878 0011079 188.8610 171.2416 14.95592660655431
PERSEUS-M1              
1 40039U 14033AF  26199.27869363  .00000677  00000+0  66212-4 0  9998
2 40039  97.9655 143.9248 0011117 186.0702 174.0385 14.95721819655286
