OBJECT_NAME,OBJECT_ID,EPOCH,MEAN_MOTION,ECCENTRICITY,INCLINATION,RA_OF_ASC_NODE,ARG_OF_PERICENTER,MEAN_ANOMALY,EPHEMERIS_TYPE,CLASSIFICATION_TYPE,NORAD_CAT_ID,ELEMENT_SET_NO,REV_AT_EPOCH,BSTAR,MEAN_MOTION_DOT,MEAN_MOTION_DDOT
CUTE-1 (CO-55),2003-031E,2026-07-18T07:08:10.116384,14.24352673,.00108679,98.6744,207.4657,94.6885,265.5536,0,U,27844,999,19610,.74435316E-4,.128E-5,0
CUBESAT XI-IV (CO-57),2003-031J,2026-07-17T22:48:02.109024,14.23635431,.00106323,98.6776,206.8106,112.1739,248.0569,0,U,27848,999,19575,.66203101E-4,.107E-5,0
CUBESAT XI-V,2005-043F,2026-07-16T23:00:13.929984,14.72704810,.0015312,98.3017,354.2118,110.0551,250.2305,0,U,28895,999,10613,.10709E-3,.631E-5,0
CUTE-1.7+APD II (CO-65),2008-021C,2026-07-18T04:53:08.831616,15.09715838,.00068393,97.8299,181.2770,287.0657,72.9822,0,U,32785,999,98987,.1304799E-3,.2036E-4,0
CANX-2,2008-021H,2026-07-18T04:33:00.164736,15.05814552,.00086467,97.8659,179.5777,306.0320,54.0104,0,U,32790,999,98947,.95240807E-4,.1316E-4,0
SEEDS II (CO-66),2008-021J,2026-07-18T06:22:13.792224,15.33729458,.000342,97.7531,198.6727,150.0473,210.0965,0,U,32791,999,99205,.30653814E-3,.9917E-4,0
SWISSCUBE,2009-051B,2026-07-17T16:22:26.527872,14.62533257,.00079463,98.4004,107.0987,112.4041,247.8002,0,U,35932,999,89361,.95101173E-4,.433E-5,0
BEESAT-1,2009-051C,2026-07-17T16:59:00.359520,14.61763986,.00062406,98.3931,106.6958,123.4432,236.7366,0,U,35933,999,89364,.80630624E-4,.353E-5,0
ITUPSAT1,2009-051E,2026-07-18T04:55:01.324416,14.60481150,.00082682,98.4013,106.3592,134.7266,225.4608,0,U,35935,999,89326,.78213257E-4,.331E-5,0
TISAT 1,2010-035E,2026-07-17T19:26:04.833024,15.32792576,.00046593,98.0716,148.1049,115.0155,245.1569,0,U,36799,999,87239,.35591786E-3,.11191E-3,0
STRAND-1,2013-009E,2026-07-18T05:54:47.539584,14.37179871,.00095546,98.3937,18.7186,132.8363,227.3628,0,U,39090,999,70152,.50761266E-4,.108E-5,0
BRITE-AUSTRIA,2013-009F,2026-07-17T18:50:39.992640,14.36553072,.00109061,98.4011,17.4659,143.4124,216.7810,0,U,39091,999,70144,.34435987E-4,.59E-6,0
NEE-01 PEGASO,2013-018B,2026-07-17T21:05:30.609600,14.93796575,.00136255,98.1261,344.0523,66.4608,293.8041,0,U,39151,999,71528,.14325628E-3,.146E-4,0
POPACS 2,2013-055E,2026-07-18T04:02:52.024416,14.92100608,.04146575,80.9914,108.7152,94.3421,270.5279,0,U,39269,999,66783,.2370533E-3,.14551E-3,-.925468E-6
POPACS 3,2013-055F,2026-07-18T07:24:03.271680,14.56710923,.05483759,81.0005,195.4250,335.1698,22.3977,0,U,39270,999,64308,.1794019E-3,.7544E-4,0
ZACUBE-1 (TSHEPISOSAT),2013-066B,2026-07-17T20:48:51.576768,15.01335799,.00440515,97.8005,161.3542,146.6146,213.7870,0,U,39417,999,68533,.10037859E-3,.1255E-4,0
WNISAT-1,2013-066H,2026-07-18T03:51:49.580064,14.58123643,.01640376,97.7240,346.1247,134.0280,227.4571,0,U,39423,999,67124,.10786849E-3,.55E-5,0
TRITON-1,2013-066M,2026-07-18T05:22:41.145312,14.81800137,.00908007,97.8223,108.3220,132.3489,228.5460,0,U,39427,999,67868,.7588968E-4,.587E-5,0
GOMX-1,2013-066Q,2026-07-18T05:38:42.257184,14.69546250,.01279711,97.6462,37.7382,338.4264,21.1578,0,U,39430,999,67447,.90350177E-4,.555E-5,0
CUBEBUG-2 (LO-74),2013-066AA,2026-07-18T06:37:36.914880,14.93979591,.00555884,97.8920,148.3935,284.9361,74.5708,0,U,39440,999,68163,.18626111E-3,.1982E-4,0
NEE-02 KRYSAOR,2013-066AB,2026-07-18T07:17:31.066656,14.86746311,.00651492,97.8897,138.3004,329.0008,30.7369,0,U,39441,999,68082,.11889341E-3,.1039E-4,0
FUNCUBE-1 (AO-73),2013-066AE,2026-07-17T21:03:23.146272,15.09839207,.00379436,97.8295,170.9747,98.9940,261.5586,0,U,39444,999,68429,.2737156E-3,.4433E-4,0
UWE-3,2013-066AG,2026-07-17T19:50:06.876672,14.97209607,.0047603,97.8719,155.1139,215.4548,144.3506,0,U,39446,999,68216,.17707243E-3,.2032E-4,0
BRITE-CA1 (TORONTO),2014-033L,2026-07-18T07:00:23.447520,14.72726048,.00787007,97.9775,327.6531,176.3507,183.8291,0,U,40020,999,64679,.83984346E-4,.509E-5,0
DUCHIFAT-1,2014-033M,2026-07-18T03:55:10.668288,15.71597676,.00032592,98.0423,262.8485,233.3410,126.7552,0,U,40021,999,66060,.72542299E-3,.93801E-3,0
NANOSATC-BR1,2014-033Q,2026-07-18T00:50:59.316000,15.32384103,.00051963,98.0705,234.1779,89.7852,270.3983,0,U,40024,999,65870,.31674911E-3,.9821E-4,0
QB50P1,2014-033R,2026-07-18T07:39:18.658080,15.18693321,.0010487,98.0968,212.6585,115.5699,244.6619,0,U,40025,999,65775,.21985551E-3,.4488E-4,0
QB50P2,2014-033Y,2026-07-17T22:29:39.250176,15.15528215,.00092438,98.0766,197.7424,76.1701,284.0558,0,U,40032,999,65732,.21789873E-3,.4058E-4,0
PERSEUS-M2,2014-033AD,2026-07-18T07:23:52.327392,14.95592660,.00110798,97.9988,150.4878,188.8610,171.2416,0,U,40037,999,65543,.17096537E-4,.129E-5,0
PERSEUS-M1,2014-033AF,2026-07-18T06:41:19.129632,14.95721819,.00111171,97.9655,143.9248,186.0702,174.0385,0,U,40039,999,65528,.66212445E-4,.677E-5,0
